[{"OBJECT_NAME":"IRIDIUM 169","OBJECT_ID":"2019-002E","EPOCH":"2026-03-09T22:14:17.748384","MEAN_MOTION":14.38612437,"ECCENTRICITY":0.00014131,"INCLINATION":86.4172,"RA_OF_ASC_NODE":66.6873,"ARG_OF_PERICENTER":82.9186,"MEAN_ANOMALY":277.2173,"EPHEMERIS_TYPE":0,"CLASSIFICATION_TYPE":"U","NORAD_CAT_ID":43926,"ELEMENT_SET_NO":999,"REV_AT_EPOCH":37595,"BSTAR":6.3248636e-5,"MEAN_MOTION_DOT":2.13e-6,"MEAN_MOTION_DDOT":0},{"OBJECT_NAME":"DMSP 5D-2 F13 DEB","OBJECT_ID":"1995-015CN","EPOCH":"2026-03-07T20:18:11.668032","MEAN_MOTION":14.39693144,"ECCENTRICITY":0.00099974,"INCLINATION":98.6909,"RA_OF_ASC_NODE":104.4517,"ARG_OF_PERICENTER":172.3959,"MEAN_ANOMALY":187.7382,"EPHEMERIS_TYPE":0,"CLASSIFICATION_TYPE":"U","NORAD_CAT_ID":40499,"ELEMENT_SET_NO":999,"REV_AT_EPOCH":57062,"BSTAR":0.0021699916,"MEAN_MOTION_DOT":6.756e-5,"MEAN_MOTION_DDOT":0}]
